satname,norad_id,inclination_deg,eccentricity,mean_motion_rev_per_day,perigee_km,apogee_km,l1,l2
STARLINK-1360,45588,53.0404,0.0003052,15.83652118,318.07842732521294,322.1670450681868,1 45588U 20025BK  25332.91667823  .00143174  00000+0  62961-3 0  9992,2 45588  53.0404  58.2844 0003052 334.9751 287.8996 15.83652118  6040
STARLINK-1364,45589,53.0536,0.000145,15.06393981,546.2258271520286,548.234183583585,1 45589U 20025BL  25332.84199116  .00001262  00000+0  10365-3 0  9992,2 45589  53.0536 169.3451 0001450  95.0378 265.0777 15.06393981310302
STARLINK-1365,45590,53.054,0.0001743,15.06392915,546.0261804894571,548.4403645664606,1 45590U 20025BM  25332.79130833  .00000161  00000+0  29695-4 0  9993,2 45590  53.0540 199.5652 0001743  95.7502 264.3685 15.06392915309896
STARLINK-1443,45660,53.0526,0.0001383,15.06387708,546.2914504882765,548.2070123198828,1 45660U 20035D   25332.57754410  .00011725  00000+0  80497-3 0  9995,2 45660  53.0526 160.5313 0001383  94.3995 265.7152 15.06387708303499
STARLINK-1446,45663,53.0255,4.12e-05,15.3635774,456.6090010592234,457.17220733380873,1 45663U 20035G   25332.77855436  .00029850  00000+0  83717-3 0  9996,2 45663  53.0255 116.7694 0000412 174.9635 185.1371 15.36357740304129
STARLINK-1448,45665,53.0543,0.0001606,15.0639307,546.1205830821254,548.3450118610735,1 45665U 20035J   25332.51485899  .00001751  00000+0  13642-3 0  9992,2 45665  53.0543 160.8082 0001606  94.2064 265.9109 15.06393070303474
STARLINK-1451,45668,53.0529,0.0001366,15.06393012,546.2869696959979,548.1789807732321,1 45668U 20035M   25332.51858520  .00001892  00000+0  14592-3 0  9991,2 45668  53.0529 161.1118 0001366  89.2773 270.8373 15.06393012303484
STARLINK-1452,45669,53.0366,0.0011369,15.29531362,469.41838267790445,485.0060757552974,1 45669U 20035N   25332.62036851  .00063376  00000+0  21742-2 0  9998,2 45669  53.0366 137.3153 0011369 117.0769 243.1391 15.29531362303825
STARLINK-1453,45670,53.054,0.0001359,15.12620723,527.2727352616348,529.1498807317485,1 45670U 20035P   25332.66668981 -.00008689  00000+0 -47537-3 0  9998,2 45670  53.0540 129.7307 0001359  85.4601 150.0751 15.12620723  5757
STARLINK-1454,45671,53.0537,0.0001493,15.06374119,546.2569142288376,548.3248469939872,1 45671U 20035Q   25332.80606558 -.00002140  00000+0 -12492-3 0  9995,2 45671  53.0537 159.5051 0001493  97.4693 262.6466 15.06374119303510
STARLINK-1456,45673,53.0532,0.0001412,15.06393595,546.2533264221402,548.2090503985473,1 45673U 20035S   25332.82079132  .00000566  00000+0  56892-4 0  9992,2 45673  53.0532 159.4396 0001412  92.4164 267.6986 15.06393595303530
STARLINK-1457,45674,53.0528,0.0001608,15.44491298,431.7779920897365,433.9684129708703,1 45674U 20035T   25332.81176623  .00110442  00000+0  23213-2 0  9999,2 45674  53.0528 154.3784 0001608 174.3648 185.7376 15.44491298303573
STARLINK-1458,45675,53.053,0.0001419,15.06386496,546.2702332291819,548.2356588958746,1 45675U 20035U   25332.81711044 -.00000232  00000+0  33448-5 0  9992,2 45675  53.0530 159.4527 0001419  91.0745 269.0406 15.06386496303493
STARLINK-1460,45676,53.0533,0.0001414,15.06391132,546.2594890851442,548.2179853436273,1 45676U 20035V   25332.52223209  .00001267  00000+0  10399-3 0  9998,2 45676  53.0533 160.7768 0001414  94.4716 265.6434 15.06391132303440
STARLINK-1392,45677,53.0524,0.000149,15.06401474,546.1751640822449,548.2389166062667,1 45677U 20035W   25332.26790175  .00002453  00000+0  18348-3 0  9991,2 45677  53.0524 161.9205 0001490  98.2859 261.8299 15.06401474303442
STARLINK-1394,45679,53.0529,0.0001362,15.06391465,546.2944805711195,548.1809526439247,1 45679U 20035Y   25332.53052256  .00000351  00000+0  42458-4 0  9999,2 45679  53.0529 150.7397 0001362  93.3671 266.7474 15.06391465303620
STARLINK-1402,45685,53.054,0.0003945,15.2974939,473.8566616135531,479.26501820924386,1 45685U 20035AE  25332.78939672  .00060433  00000+0  20640-2 0  9993,2 45685  53.0540 138.0048 0003945 182.8300 177.2678 15.29749390303838
STARLINK-1404,45686,53.0531,0.0001287,15.06390633,546.3489705387337,548.1315626471551,1 45686U 20035AF  25332.48998039  .00001058  00000+0  89947-4 0  9998,2 45686  53.0531 150.9247 0001287  91.9694 268.1443 15.06390633303620
STARLINK-1413,45689,53.0539,0.0001464,15.06394763,546.213735256807,548.2414820142158,1 45689U 20035AJ  25332.64110028  .00000857  00000+0  76463-4 0  9998,2 45689  53.0539 150.2429 0001464  88.4182 271.6974 15.06394763303554
STARLINK-1417,45693,53.0521,0.0001613,15.06818269,544.8130682472511,547.0467722357207,1 45693U 20035AN  25332.63570018  .00008717  00000+0  59666-3 0  9999,2 45693  53.0521 150.2526 0001613 117.2138 242.9015 15.06818269303634
STARLINK-1420,45695,53.0552,0.000132,15.06422557,546.2282879606728,548.0565617288312,1 45695U 20035AQ  25332.63827852  .00004320  00000+0  30852-3 0  9994,2 45695  53.0552 130.2460 0001320  81.8650 278.2488 15.06422557303924
STARLINK-1422,45696,53.0524,0.0001493,15.06392841,546.199541513537,548.267457144636,1 45696U 20035AR  25332.51577944  .00000721  00000+0  67318-4 0  9995,2 45696  53.0524 150.8077 0001493  98.4445 261.6713 15.06392841303618
STARLINK-1351,45697,53.0553,0.0001328,15.06393236,546.3125996601138,548.1519777431931,1 45697U 20035AS  25332.75720933  .00000260  00000+0  36379-4 0  9991,2 45697  53.0553 129.7239 0001328  91.0972 269.0169 15.06393236303949
STARLINK-1398,45699,53.0475,0.0002366,15.56112603,397.31690515949595,400.5238087007965,1 45699U 20035AU  25332.61743278  .00046768  00000+0  66061-3 0  9998,2 45699  53.0475  80.4815 0002366 210.3814 149.7060 15.56112603304623
STARLINK-1400,45700,53.0532,0.0001368,15.06393007,546.2855999443036,548.18038117372,1 45700U 20035AV  25332.59871479  .00001219  00000+0  10073-3 0  9997,2 45700  53.0532 130.4327 0001368  91.6759 268.4387 15.06393007303919
STARLINK-1403,45701,53.0547,0.0001538,15.06392749,546.1686592719216,548.2989033242493,1 45701U 20035AW  25332.82724234  .00000273  00000+0  37205-4 0  9996,2 45701  53.0547 129.4084 0001538  90.3736 269.7429 15.06392749303940
STARLINK-1407,45703,53.04,0.0010204,15.44372678,426.27164691392227,440.17226827458126,1 45703U 20035AY  25332.59682936  .00024120  00000+0  52095-3 0  9994,2 45703  53.0400  81.7300 0010204 146.1953 213.9705 15.44372678304605
STARLINK-1411,45706,53.0509,8.27e-05,15.44441035,432.4576927317821,433.58425826092935,1 45706U 20035BB  25332.67642810  .00046833  00000+0  99936-3 0  9993,2 45706  53.0509 108.5887 0000827 306.5742  53.5188 15.44441035304229
STARLINK-1423,45710,53.0541,0.0001338,15.06394728,546.3011021071061,548.1543297050821,1 45710U 20035BF  25332.58765365  .00000710  00000+0  66536-4 0  9994,2 45710  53.0541 130.4858 0001338  87.8887 272.2255 15.06394728303913
STARLINK-1433,45711,53.0546,0.0001258,15.0639174,546.3656617309789,548.1080857976176,1 45711U 20035BG  25332.63557558  .00001104  00000+0  92989-4 0  9993,2 45711  53.0546 130.2675 0001258  91.1945 268.9189 15.06391740303917
STARLINK-1434,45712,53.0475,0.0005969,15.17367834,509.68557143907947,517.9131650755044,1 45712U 20035BH  25332.61159213  .00045951  00000+0  22737-2 0  9998,2 45712  53.0475 124.5684 0005969 150.4517 209.6815 15.17367834304000
STARLINK-1465,45731,53.0557,0.0001464,15.06398737,546.2015572584924,548.2293004496614,1 45731U 20038B   25332.27066739  .00000055  00000+0  22596-4 0  9995,2 45731  53.0557 331.9075 0001464  76.4144 283.7008 15.06398737300905
STARLINK-1471,45735,53.0497,0.0001603,15.42357698,438.0602238671345,440.24584705250254,1 45735U 20038F   25332.23575840  .00023865  00000+0  55246-3 0  9994,2 45735  53.0497 265.4365 0001603  83.2266 276.8921 15.42357698301843
STARLINK-1474,45738,53.034,0.0003946,15.72406888,349.3646016996281,354.6760418579752,1 45738U 20038J   25332.09840671  .00097885  00000+0  71721-3 0  9997,2 45738  53.0340 217.7837 0003946  96.5566 263.5901 15.72406888302491
STARLINK-1475,45739,53.0403,0.0002249,15.97266709,280.5080417049967,283.50377398494584,1 45739U 20038K   25332.91667823  .00450251  95006-4  10066-2 0  9994,2 45739  53.0403 176.7563 0002249 183.2049  43.3126 15.97266709  5741
STARLINK-1480,45741,53.0548,0.0001787,15.06403225,545.964115774389,548.4392318164037,1 45741U 20038M   25332.38492741  .00001402  00000+0  11297-3 0  9996,2 45741  53.0548 331.3920 0001787 103.0550 257.0639 15.06403225300931
STARLINK-1500,45744,53.0387,0.0001646,15.29042026,477.54612168811036,479.8033841171655,1 45744U 20038Q   25332.22597632  .00023494  00000+0  83180-3 0  9992,2 45744  53.0387 306.5947 0001646 359.4126   0.6870 15.29042026301267
STARLINK-1504,45746,53.0276,0.0003079,15.43113244,434.8292207770792,439.0259375449268,1 45746U 20038S   25332.83541264  .00034552  00000+0  77464-3 0  9996,2 45746  53.0276 265.6299 0003079  50.6150 309.5126 15.43113244301880
STARLINK-1506,45747,53.0659,0.0002578,15.22416852,496.7802850784974,500.32590649188387,1 45747U 20038T   25332.23452992  .00045052  00000+0  19266-2 0  9992,2 45747  53.0659 310.3931 0002578 356.4245   3.6732 15.22416852301212
STARLINK-1464,45751,53.0556,0.0001471,15.06400249,546.1920761286328,548.22951344986,1 45751U 20038X   25332.65215812  .00001683  00000+0  13183-3 0  9996,2 45751  53.0556 310.1915 0001471  84.3226 275.7930 15.06400249301251
STARLINK-1477,45754,53.0535,0.0004727,15.08259874,538.2462498755576,544.7880909282558,1 45754U 20038AA  25332.24849033  .00029205  00000+0  18744-2 0  9999,2 45754  53.0535 311.7903 0004727  57.0879 303.0565 15.08259874301193
STARLINK-1478,45755,53.0527,0.0001312,15.06399036,546.3059063425762,548.1231185794468,1 45755U 20038AB  25332.81803495  .00005956  00000+0  41844-3 0  9990,2 45755  53.0527 309.4439 0001312  93.4232 266.6907 15.06399036301262
STARLINK-1484,45756,53.0135,0.0003443,15.66750018,365.887651151369,370.5331859837952,1 45756U 20038AC  25332.06470316  .00090395  00000+0  83804-3 0  9993,2 45756  53.0135 207.0903 0003443 118.4834 241.6528 15.66750018302631
